SKYSAT-C1               
1 41601U 16040C   26186.06138831  .00015073  00000+0  42330-3 0  9996
2 41601  96.9551 216.8145 0001497  20.1771 339.9533 15.36622026560611
LAPAN-A3                
1 41603U 16040E   26186.27013683  .00005100  00000+0  16105-3 0  9999
2 41603  97.1497 181.8232 0008678 319.0535  41.0055 15.33230808557581
GAOFEN-3                
1 41727U 16049A   26186.33038346  .00000368  00000+0  12479-3 0  9996
2 41727  98.4011 193.8426 0001714  91.4880 268.6507 14.42218931521267
SKYSAT-C4               
1 41771U 16058B   26185.32375483  .00022372  00000+0  41239-3 0  9994
2 41771  96.9163 206.3834 0002854 134.2708 225.8779 15.49141148548124
SKYSAT-C5               
1 41772U 16058C   26185.84011224  .00013017  00000+0  38859-3 0  9992
2 41772  97.0456 225.6942 0002198 183.2144 176.9087 15.34736407546459
SKYSAT-C2               
1 41773U 16058D   26185.77760887  .00022506  00000+0  52036-3 0  9997
2 41773  97.0161 207.2138 0002783  28.9568 331.1835 15.42495246547764
SKYSAT-C3               
1 41774U 16058E   26186.05714343  .00037140  00000+0  58772-3 0  9999
2 41774  96.8996 216.2241 0001713 133.4537 226.6861 15.53353116548885
ALSAT-1B                
1 41785U 16059C   26186.25040216  .00000267  00000+0  49662-4 0  9994
2 41785  97.7750 194.2346 0009576 159.2564 200.9035 14.72288188523233
PATHFINDER 1            
1 41787U 16059E   26185.93058554  .00000867  00000+0  15960-3 0  9993
2 41787  97.8170 184.4063 0029211 147.2028 213.0998 14.67685395522315
SCATSAT 1               
1 41790U 16059H   26186.13511590  .00001843  00000+0  24750-3 0  9996
2 41790  98.1181 250.0859 0054443 188.8311 171.1947 14.79571066104247
GOKTURK 1A              
1 41875U 16073A   26186.30431638  .00000589  00000+0  12461-3 0  9991
2 41875  98.1225  80.6930 0001387  78.7816 281.3542 14.62788658511474
RESOURCESAT-2A          
1 41877U 16074A   26186.29982472  .00000077  00000+0  55355-4 0  9991
2 41877  98.7520 259.6562 0002922  48.9245 311.2184 14.21606760496879
CARTOSAT-2D             
1 41948U 17008A   26186.27099387  .00007584  00000+0  36302-3 0  9990
2 41948  97.4091 245.2388 0005138 167.3972 192.7392 15.19232876520321
SENTINEL-2B             
1 42063U 17013A   26186.31937325  .00000089  00000+0  50607-4 0  9991
2 42063  98.5686 260.8379 0001219  89.3506 270.7817 14.30813081487233
FORMOSAT-5              
1 42920U 17049A   26186.25917195  .00000239  00000+0  71447-4 0  9990
2 42920  98.2249 261.1672 0011994  33.4998 326.6953 14.50905964469295
SENTINEL-5P             
1 42969U 17064A   26185.82336367  .00000098  00000+0  67553-4 0  9994
2 42969  98.7928 127.8294 0001088  92.0337 268.0964 14.19522247452068
SKYSAT-C11              
1 42987U 17068A   26185.65180667  .00046313  00000+0  59785-3 0  9996
2 42987  97.4374 335.2554 0000550 164.1646 195.9627 15.58849535485965
SKYSAT-C10              
1 42988U 17068B   26185.63504780  .00019095  00000+0  56482-3 0  9999
2 42988  97.4530 322.6571 0001266 108.4549 251.6831 15.34954592485036
SKYSAT-C9               
1 42989U 17068C   26186.15204287  .00020658  00000+0  48482-3 0  9995
2 42989  97.4452 324.2875 0009276  76.6476 283.5805 15.42030350485524
SKYSAT-C8               
1 42990U 17068D   26185.84000391  .00017285  00000+0  47416-3 0  9990
2 42990  97.4548 322.7320 0001197  96.1071 264.0309 15.37337781485022
SKYSAT-C7               
1 42991U 17068E   26185.37852402  .00015861  00000+0  43598-3 0  9992
2 42991  97.4560 323.2545 0006585  55.9275 304.2594 15.37274879485017
SKYSAT-C6               
1 42992U 17068F   26185.82229056  .00015608  00000+0  47208-3 0  9997
2 42992  97.4596 323.6042 0005208 103.9495 256.2328 15.34283314485025
CARTOSAT-2F             
1 43111U 18004A   26186.32123380  .00009038  00000+0  43222-3 0  9993
2 43111  97.4770 245.7789 0001922 155.8341 204.2984 15.19219779470088
GAOFEN-1 02             
1 43259U 18031A   26186.32567193  .00000920  00000+0  13964-3 0  9991
2 43259  98.0514 248.8016 0002053 337.5466  22.5654 14.76461825445376
GAOFEN-1 03             
1 43260U 18031B   26186.30370659  .00000876  00000+0  13328-3 0  9994
2 43260  98.0509 248.6359 0003160  40.9207 319.2240 14.76452916445365
GAOFEN-1 04             
1 43262U 18031D   26186.27946620  .00001377  00000+0  20532-3 0  9991
2 43262  98.0515 248.8049 0001715  60.9506 299.1875 14.76462685445353
SENTINEL-3B             
1 43437U 18039A   26186.21308142  .00000164  00000+0  85603-4 0  9992
2 43437  98.6240 253.4861 0000920 117.0798 243.0476 14.26740289426691
GAOFEN-5 01             
1 43461U 18043A   26185.66747583  .00000509  00000+0  11478-3 0  9999
2 43461  98.4581 157.6218 0002625  52.0777 308.0659 14.60618723434244
GAOFEN-6                
1 43484U 18048A   26185.14927319  .00000270  00000+0  46409-4 0  9997
2 43484  98.0962 247.8248 0012019 112.9072 247.3408 14.76373246435899
